{
  "64732": {
    "noradId": "64732",
    "tle": [
      "1 64732C 25144J   25295.40187500 -.00014032  00000+0 -47296-3 0  2957",
      "2 64732  53.1568 103.4316 0001213  92.1870  85.4033 15.30204646    19"
    ]
  },
  "64733": {
    "noradId": "64733",
    "tle": [
      "1 64733C 25144K   25295.40465278  .00006522  00000+0  21977-3 0  2950",
      "2 64733  53.1594 100.9064 0001216  80.1436 307.5881 15.30193102    12"
    ]
  },
  "64734": {
    "noradId": "64734",
    "tle": [
      "1 64734C 25144L   25295.40534722 -.00000598  00000+0 -20159-4 0  2953",
      "2 64734  53.1577 103.1990 0001258  85.5269 221.7304 15.30187344    14"
    ]
  },
  "64735": {
    "noradId": "64735",
    "tle": [
      "1 64735C 25144M   25295.40395833 -.00085881  00000+0 -28913-2 0  2954",
      "2 64735  53.1579 103.5286 0001501  91.0634  45.6261 15.30312868    14"
    ]
  },
  "64736": {
    "noradId": "64736",
    "tle": [
      "1 64736C 25144N   25295.81784722 -.00000069  00000+0 -23215-5 0  2957",
      "2 64736  53.1573 101.4158 0001025  94.0428 257.0239 15.30186742    13"
    ]
  },
  "64737": {
    "noradId": "64737",
    "tle": [
      "1 64737C 25144P   25295.41159722 -.00008969  00000+0 -30224-3 0  2953",
      "2 64737  53.1587 103.6354 0001350  86.1870  17.0253 15.30204076    16"
    ]
  },
  "64738": {
    "noradId": "64738",
    "tle": [
      "1 64738C 25144Q   25295.40673611  .00008977  00000+0  30259-3 0  2956",
      "2 64738  53.1589 103.0537 0001227  84.2774 300.4354 15.30177969    12"
    ]
  },
  "64739": {
    "noradId": "64739",
    "tle": [
      "1 64739C 25144R   25295.39979167 -.00076859  00000+0 -25877-2 0  2955",
      "2 64739  53.1573 103.5073 0001074  92.9634  38.1483 15.30302715    14"
    ]
  },
  "64740": {
    "noradId": "64740",
    "tle": [
      "1 64740C 25144S   25295.82618056  .00013406  00000+0  45193-3 0  2953",
      "2 64740  53.1602  98.9245 0001236  79.5896 123.1919 15.30170589    19"
    ]
  },
  "64741": {
    "noradId": "64741",
    "tle": [
      "1 64741C 25144T   25295.81993056 -.00002057  00000+0 -69318-4 0  2957",
      "2 64741  53.1570 101.4529 0001112  90.9963 248.2785 15.30191472    18"
    ]
  },
  "64742": {
    "noradId": "64742",
    "tle": [
      "1 64742C 25144U   25295.40673611 -.00016615  00000+0 -55994-3 0  2954",
      "2 64742  53.1576 103.5434 0001206  88.9641  45.6182 15.30210094    19"
    ]
  },
  "64743": {
    "noradId": "64743",
    "tle": [
      "1 64743C 25144V   25295.82201389 -.00003531  00000+0 -11902-3 0  2954",
      "2 64743  53.1571 101.4298 0000962  93.7623 262.8139 15.30192973    12"
    ]
  },
  "64744": {
    "noradId": "64744",
    "tle": [
      "1 64744C 25144W   25295.82756944 -.00004145  00000+0 -13967-3 0  2952",
      "2 64744  53.1586 101.1518 0001368  76.5887  78.5529 15.30200858    10"
    ]
  },
  "64745": {
    "noradId": "64745",
    "tle": [
      "1 64745C 25144X   25295.40395833 -.00011074  00000+0 -37299-3 0  2956",
      "2 64745  53.1586 103.6469 0001242  89.6771 342.9928 15.30223600    12"
    ]
  },
  "64746": {
    "noradId": "64746",
    "tle": [
      "1 64746C 25144Y   25295.40604167  .00003635  00000+0  90721-4 0  2952",
      "2 64746  53.1588  97.8372 0001199  80.9279  68.4487 15.39608780    15"
    ]
  },
  "64747": {
    "noradId": "64747",
    "tle": [
      "1 64747C 25144Z   25295.41298611 -.00020822  00000+0 -51917-3 0  2959",
      "2 64747  53.1593  93.5645 0001039  91.1323  52.0740 15.39660114    15"
    ]
  },
  "64748": {
    "noradId": "64748",
    "tle": [
      "1 64748C 25144AA  25295.39979167 -.00012555  00000+0 -42313-3 0  2953",
      "2 64748  53.1567 103.4571 0001191  90.4930  63.9843 15.30204424    15"
    ]
  },
  "64749": {
    "noradId": "64749",
    "tle": [
      "1 64749C 25144AB  25295.40326389 -.00017962  00000+0 -60537-3 0  2953",
      "2 64749  53.1569 103.4512 0001141  95.6713  72.1265 15.30210817    17"
    ]
  },
  "64750": {
    "noradId": "64750",
    "tle": [
      "1 64750C 25144AC  25295.40187500 -.00001126  00000+0 -37951-4 0  2955",
      "2 64750  53.1573 103.2800 0001245  87.3625 165.8328 15.30193539    18"
    ]
  },
  "64755": {
    "noradId": "64755",
    "tle": [
      "1 64755C 25147A   25295.81159722 -.00002477  00000+0 -83457-4 0  2955",
      "2 64755  53.1585 163.1598 0001196  84.8025 231.1291 15.30204741    10"
    ]
  },
  "64756": {
    "noradId": "64756",
    "tle": [
      "1 64756C 25147B   25295.82826389 -.00008728  00000+0 -29409-3 0  2958",
      "2 64756  53.1581 163.3166 0001121  78.3885 207.2630 15.30209397    13"
    ]
  },
  "64757": {
    "noradId": "64757",
    "tle": [
      "1 64757C 25147C   25295.82687500  .00020364  00000+0  68586-3 0  2956",
      "2 64757  53.1566 163.4389 0001199  82.7452 136.9560 15.30194704    14"
    ]
  },
  "64758": {
    "noradId": "64758",
    "tle": [
      "1 64758C 25147D   25295.40395833  .00005293  00000+0  17836-3 0  2952",
      "2 64758  53.1586 165.0376 0001839  74.3933 160.5541 15.30191878    14"
    ]
  },
  "64759": {
    "noradId": "64759",
    "tle": [
      "1 64759C 25147E   25295.40812500  .00008351  00000+0  28144-3 0  2950",
      "2 64759  53.1572 164.8789 0001379  80.5420 247.1777 15.30187436    12"
    ]
  },
  "64760": {
    "noradId": "64760",
    "tle": [
      "1 64760C 25147F   25295.81784722 -.00001476  00000+0 -49740-4 0  2950",
      "2 64760  53.1585 163.1636 0001172  84.7989 248.1431 15.30197655    10"
    ]
  },
  "64761": {
    "noradId": "64761",
    "tle": [
      "1 64761C 25147G   25295.39979167  .00026229  00000+0  88428-3 0  2959",
      "2 64761  53.1569 164.9342 0001357  83.3631 192.5882 15.30154894    10"
    ]
  },
  "64762": {
    "noradId": "64762",
    "tle": [
      "1 64762C 25147H   25295.41090278  .00024207  00000+0  81635-3 0  2957",
      "2 64762  53.1588 165.1092 0001383  95.6763 125.2730 15.30147945    12"
    ]
  },
  "64763": {
    "noradId": "64763",
    "tle": [
      "1 64763C 25147J   25295.40743056  .00003576  00000+0  12050-3 0  2957",
      "2 64763  53.1585 165.2008 0001229  89.5241  71.5053 15.30192226    13"
    ]
  },
  "64764": {
    "noradId": "64764",
    "tle": [
      "1 64764C 25147K   25295.82826389 -.00013750  00000+0 -46331-3 0  2951",
      "2 64764  53.1587 163.1341 0001366  80.3918 298.3272 15.30212541    10"
    ]
  },
  "64765": {
    "noradId": "64765",
    "tle": [
      "1 64765C 25147L   25295.40465278  .00025275  00000+0  85247-3 0  2954",
      "2 64765  53.1577 164.9640 0001183 102.8331 170.8244 15.30143121    17"
    ]
  },
  "64766": {
    "noradId": "64766",
    "tle": [
      "1 64766C 25147M   25295.40673611 -.00002408  00000+0 -81154-4 0  2956",
      "2 64766  53.1565 165.4110 0001034  92.1104 320.3986 15.30197814    10"
    ]
  },
  "64767": {
    "noradId": "64767",
    "tle": [
      "1 64767C 25147N   25295.39909722  .00005409  00000+0  18230-3 0  2956",
      "2 64767  53.1577 164.9769 0001363  87.6864 161.1955 15.30189080    18"
    ]
  },
  "64768": {
    "noradId": "64768",
    "tle": [
      "1 64768C 25147P   25295.40187500  .00001421  00000+0  35461-4 0  2957",
      "2 64768  53.1601 160.7863 0001211  89.2872 133.3444 15.39616320    10"
    ]
  },
  "64769": {
    "noradId": "64769",
    "tle": [
      "1 64769C 25147Q   25295.82270833  .00013874  00000+0  46758-3 0  2951",
      "2 64769  53.1575 163.0360 0001652  90.1307 321.9483 15.30179882    18"
    ]
  },
  "64770": {
    "noradId": "64770",
    "tle": [
      "1 64770C 25147R   25295.40951389  .00006383  00000+0  21507-3 0  2951",
      "2 64770  53.1585 164.9897 0001299  81.9639 195.2344 15.30191543    15"
    ]
  },
  "64771": {
    "noradId": "64771",
    "tle": [
      "1 64771C 25147S   25295.40881944  .00023719  00000+0  79992-3 0  2954",
      "2 64771  53.1563 164.7749 0001164  77.8633 306.0091 15.30147158    19"
    ]
  },
  "64772": {
    "noradId": "64772",
    "tle": [
      "1 64772C 25147T   25295.40743056  .00004897  00000+0  16503-3 0  2951",
      "2 64772  53.1563 164.7689 0001199  92.1105 289.9462 15.30191656    18"
    ]
  },
  "64773": {
    "noradId": "64773",
    "tle": [
      "1 64773C 25147U   25295.40118056  .00005882  00000+0  19821-3 0  2959",
      "2 64773  53.1562 164.8564 0001351  82.7545 235.7689 15.30190716    10"
    ]
  },
  "64774": {
    "noradId": "64774",
    "tle": [
      "1 64774C 25147V   25295.40743056  .00011696  00000+0  39417-3 0  2957",
      "2 64774  53.1569 165.3360 0001257  85.3151   5.9170 15.30181042    19"
    ]
  },
  "64775": {
    "noradId": "64775",
    "tle": [
      "1 64775C 25147W   25295.39909722  .00003603  00000+0  12142-3 0  2955",
      "2 64775  53.1583 165.2714 0000958  97.1467   0.5065 15.30189485    19"
    ]
  },
  "64776": {
    "noradId": "64776",
    "tle": [
      "1 64776C 25147X   25295.40465278  .00009922  00000+0  33434-3 0  2958",
      "2 64776  53.1587 165.1775 0001307  76.0284  87.1373 15.30187123    12"
    ]
  },
  "64777": {
    "noradId": "64777",
    "tle": [
      "1 64777C 25147Y   25295.40881944  .00002144  00000+0  72256-4 0  2956",
      "2 64777  53.1588 165.0454 0001169  79.1837 165.1188 15.30190317    11"
    ]
  },
  "64778": {
    "noradId": "64778",
    "tle": [
      "1 64778C 25147Z   25295.41229167  .00001667  00000+0  41594-4 0  2951",
      "2 64778  53.1591 147.8639 0001097  91.9304  74.9805 15.39619040    11"
    ]
  },
  "64779": {
    "noradId": "64779",
    "tle": [
      "1 64779C 25147AA  25295.40256944  .00004688  00000+0  15799-3 0  2957",
      "2 64779  53.1574 164.9359 0001283  85.6113 194.0412 15.30190872    13"
    ]
  },
  "64780": {
    "noradId": "64780",
    "tle": [
      "1 64780C 25147AB  25295.40187500  .00002607  00000+0  87843-4 0  2959",
      "2 64780  53.1569 164.8684 0001278  87.4865 223.2381 15.30192387    10"
    ]
  }
}